******** Week 938 almanac for PRN-27 ********
ID:                         27
Health:                     000
Eccentricity:               5.1116943359E-004
Time of Applicability(s):  430080.0000
Orbital Inclination(rad):   0.0182639588
Rate of Right Ascen(r/s):  -6.7545670700E-009
SQRT(A)  (m 1/2):           5282.576660
Right Ascen at Week(rad):  -2.0727241280E+000
Argument of Perigee(rad):   1.100397148
Mean Anom(rad):             8.4296139200E-001
Af0(s):                     2.4890900000E-004
Af1(s/s):                   7.2759600000E-012
week:                        938

******** Week 938 almanac for PRN-28 ********
ID:                         28
Health:                     000
Eccentricity:               2.5272369385E-004
Time of Applicability(s):  430080.0000
Orbital Inclination(rad):   0.0181381244
Rate of Right Ascen(r/s):  -6.7659961200E-009
SQRT(A)  (m 1/2):           5282.590332
Right Ascen at Week(rad):  -2.0729600680E+000
Argument of Perigee(rad):  -1.529922630
Mean Anom(rad):            -2.0980722620E+000
Af0(s):                     1.8882750000E-004
Af1(s/s):                   3.6379800000E-012
week:                        938

******** Week 938 almanac for PRN-29 ********
ID:                         29
Health:                     000
Eccentricity:               7.7724456787E-005
Time of Applicability(s):  430080.0000
Orbital Inclination(rad):   0.0163644591
Rate of Right Ascen(r/s):  -6.7774251600E-009
SQRT(A)  (m 1/2):           5282.573730
Right Ascen at Week(rad):  -2.1124582010E+000
Argument of Perigee(rad):   0.508151734
Mean Anom(rad):            -1.2010889800E-001
Af0(s):                     2.2029880000E-004
Af1(s/s):                   3.6379800000E-012
week:                        938

******** Week 938 almanac for PRN-03 ********
ID:                         03
Health:                     000
Eccentricity:               9.4032287598E-004
Time of Applicability(s):  430080.0000
Orbital Inclination(rad):   0.0265330739
Rate of Right Ascen(r/s):   1.7486442700E-009
SQRT(A)  (m 1/2):           6493.503418
Right Ascen at Week(rad):  -4.5512116400E-001
Argument of Perigee(rad):  -0.800886276
Mean Anom(rad):             3.1320112660E+000
Af0(s):                    -1.3637540000E-004
Af1(s/s):                   2.1827900000E-011
week:                        938

******** Week 938 almanac for PRN-30 ********
ID:                         30
Health:                     000
Eccentricity:               4.6491622925E-004
Time of Applicability(s):  430080.0000
Orbital Inclination(rad):   0.0163165222
Rate of Right Ascen(r/s):  -6.7659961200E-009
SQRT(A)  (m 1/2):           5282.572266
Right Ascen at Week(rad):  -2.1119649750E+000
Argument of Perigee(rad):   0.248498896
Mean Anom(rad):             9.6030193400E-001
Af0(s):                    -1.2397770000E-005
Af1(s/s):                   0.0000000000E+000
week:                        938

******** Week 938 almanac for PRN-31 ********
ID:                         31
Health:                     000
Eccentricity:               3.9582252502E-003
Time of Applicability(s):  360448.0000
Orbital Inclination(rad):  -0.0031278827
Rate of Right Ascen(r/s):  -2.4686742600E-009
SQRT(A)  (m 1/2):           6492.783203
Right Ascen at Week(rad):  -1.1907248730E+000
Argument of Perigee(rad):  -2.991708949
Mean Anom(rad):             6.3934753800E-001
Af0(s):                     2.2983550000E-004
Af1(s/s):                  -2.1827900000E-011
week:                        938

******** Week 938 almanac for PRN-32 ********
ID:                         32
Health:                     000
Eccentricity:               4.3153762817E-004
Time of Applicability(s):  430080.0000
Orbital Inclination(rad):   0.0328787210
Rate of Right Ascen(r/s):  -6.8117123100E-009
SQRT(A)  (m 1/2):           5282.585449
Right Ascen at Week(rad):   6.2707460000E-003
Argument of Perigee(rad):  -1.217023131
Mean Anom(rad):             1.0682236240E+000
Af0(s):                    -5.4740910000E-004
Af1(s/s):                  -3.6379800000E-012
week:                        938

******** Week 938 almanac for PRN-33 ********
ID:                         33
Health:                     000
Eccentricity:               2.3317337036E-004
Time of Applicability(s):  430080.0000
Orbital Inclination(rad):   0.0329086816
Rate of Right Ascen(r/s):  -6.8231413500E-009
SQRT(A)  (m 1/2):           5282.585449
Right Ascen at Week(rad):   6.1486560000E-003
Argument of Perigee(rad):  -0.303123367
Mean Anom(rad):             1.7293921890E+000
Af0(s):                    -9.4223020000E-004
Af1(s/s):                   0.0000000000E+000
week:                        938

******** Week 938 almanac for PRN-34 ********
ID:                         34
Health:                     000
Eccentricity:               5.0401687622E-004
Time of Applicability(s):  430080.0000
Orbital Inclination(rad):   0.0144769437
Rate of Right Ascen(r/s):  -6.7888542100E-009
SQRT(A)  (m 1/2):           5282.577148
Right Ascen at Week(rad):  -2.1104283720E+000
Argument of Perigee(rad):   0.490433057
Mean Anom(rad):            -2.4876370940E+000
Af0(s):                     3.3473970000E-004
Af1(s/s):                   7.2759600000E-012
week:                        938

******** Week 938 almanac for PRN-35 ********
ID:                         35
Health:                     000
Eccentricity:               7.9154968262E-004
Time of Applicability(s):  430080.0000
Orbital Inclination(rad):   0.0145488490
Rate of Right Ascen(r/s):  -6.7888542100E-009
SQRT(A)  (m 1/2):           5282.575684
Right Ascen at Week(rad):  -2.1104882940E+000
Argument of Perigee(rad):   0.311387239
Mean Anom(rad):            -7.9792430000E-001
Af0(s):                     4.7016140000E-004
Af1(s/s):                  -7.2759600000E-012
week:                        938

******** Week 938 almanac for PRN-36 ********
ID:                         36
Health:                     000
Eccentricity:               4.6586990356E-004
Time of Applicability(s):  430080.0000
Orbital Inclination(rad):   0.0037330861
Rate of Right Ascen(r/s):  -6.9945770700E-009
SQRT(A)  (m 1/2):           5282.591309
Right Ascen at Week(rad):   2.1058642550E+000
Argument of Perigee(rad):  -0.911632124
Mean Anom(rad):            -2.8205408860E+000
Af0(s):                    -7.4386600000E-005
Af1(s/s):                   1.4551900000E-011
week:                        938

******** Week 938 almanac for PRN-37 ********
ID:                         37
Health:                     000
Eccentricity:               5.8078765869E-004
Time of Applicability(s):  430080.0000
Orbital Inclination(rad):   0.0037450703
Rate of Right Ascen(r/s):  -6.9945770700E-009
SQRT(A)  (m 1/2):           5282.577148
Right Ascen at Week(rad):   2.1057196960E+000
Argument of Perigee(rad):  -0.078431509
Mean Anom(rad):            -2.0931898140E+000
Af0(s):                    -9.3173980000E-004
Af1(s/s):                   0.0000000000E+000
week:                        938

******** Week 938 almanac for PRN-38 ********
ID:                         38
Health:                     000
Eccentricity:               2.1657943726E-003
Time of Applicability(s):  430080.0000
Orbital Inclination(rad):   0.0591541341
Rate of Right Ascen(r/s):  -2.4458161600E-009
SQRT(A)  (m 1/2):           6492.810547
Right Ascen at Week(rad):  -7.8870655800E-001
Argument of Perigee(rad):  -2.620416314
Mean Anom(rad):            -9.0236981600E-001
Af0(s):                     1.2683870000E-004
Af1(s/s):                   3.6379800000E-012
week:                        938

******** Week 938 almanac for PRN-39 ********
ID:                         39
Health:                     000
Eccentricity:               3.0522346497E-003
Time of Applicability(s):  430080.0000
Orbital Inclination(rad):   0.0196661131
Rate of Right Ascen(r/s):  -1.6914990300E-009
SQRT(A)  (m 1/2):           6492.938965
Right Ascen at Week(rad):   1.3003719170E+000
Argument of Perigee(rad):  -2.840639929
Mean Anom(rad):            -2.7473955440E+000
Af0(s):                    -6.6757200000E-006
Af1(s/s):                   0.0000000000E+000
week:                        938

******** Week 938 almanac for PRN-04 ********
ID:                         04
Health:                     000
Eccentricity:               8.0728530884E-004
Time of Applicability(s):  430080.0000
Orbital Inclination(rad):   0.0255144148
Rate of Right Ascen(r/s):   1.8515056900E-009
SQRT(A)  (m 1/2):           6493.418457
Right Ascen at Week(rad):  -4.7800242000E-001
Argument of Perigee(rad):  -2.956809762
Mean Anom(rad):            -1.0962981700E-001
Af0(s):                     5.0640110000E-004
Af1(s/s):                   1.5279500000E-010
week:                        938

******** Week 938 almanac for PRN-40 ********
ID:                         40
Health:                     000
Eccentricity:               3.4952163696E-003
Time of Applicability(s):  430080.0000
Orbital Inclination(rad):   0.0414534339
Rate of Right Ascen(r/s):  -1.8629347400E-009
SQRT(A)  (m 1/2):           6492.783203
Right Ascen at Week(rad):  -2.8228017850E+000
Argument of Perigee(rad):  -3.130898605
Mean Anom(rad):             1.6346535200E+000
Af0(s):                    -4.9591060000E-005
Af1(s/s):                   0.0000000000E+000
week:                        938

******** Week 938 almanac for PRN-41 ********
ID:                         41
Health:                     000
Eccentricity:               1.5525817871E-003
Time of Applicability(s):  430080.0000
Orbital Inclination(rad):   0.0317342275
Rate of Right Ascen(r/s):  -6.8345704000E-009
SQRT(A)  (m 1/2):           5282.580566
Right Ascen at Week(rad):   9.4210990000E-003
Argument of Perigee(rad):  -1.490922966
Mean Anom(rad):             2.1520683110E+000
Af0(s):                    -8.7642670000E-004
Af1(s/s):                  -3.6379800000E-012
week:                        938

